[{"OBJECT_NAME":"STARLINK-1472","OBJECT_ID":"2020-038G","EPOCH":"2020-11-02T22:00:00.999936","MEAN_MOTION":15.05582222,"ECCENTRICITY":0.0001377,"INCLINATION":52.9988,"RA_OF_ASC_NODE":2.9529,"ARG_OF_PERICENTER":86.3728,"MEAN_ANOMALY":120.5325,"EPHEMERIS_TYPE":0,"CLASSIFICATION_TYPE":"U","NORAD_CAT_ID":45736,"ELEMENT_SET_NO":999,"REV_AT_EPOCH":2299,"BSTAR":2.107e-6,"MEAN_MOTION_DOT":-2.49e-6,"MEAN_MOTION_DDOT":0},{"OBJECT_NAME":"STARLINK-1473","OBJECT_ID":"2020-038H","EPOCH":"2020-11-03T14:00:01.000224","MEAN_MOTION":15.73189866,"ECCENTRICITY":0.0002196,"INCLINATION":53.0023,"RA_OF_ASC_NODE":304.7216,"ARG_OF_PERICENTER":11.4044,"MEAN_ANOMALY":160.1774,"EPHEMERIS_TYPE":0,"CLASSIFICATION_TYPE":"U","NORAD_CAT_ID":45737,"ELEMENT_SET_NO":999,"REV_AT_EPOCH":2385,"BSTAR":-8.5285e-5,"MEAN_MOTION_DOT":-0.00012572,"MEAN_MOTION_DDOT":0},{"OBJECT_NAME":"STARLINK-1474","OBJECT_ID":"2020-038J","EPOCH":"2020-11-03T14:00:01.000224","MEAN_MOTION":15.05571153,"ECCENTRICITY":8.91e-5,"INCLINATION":52.9989,"RA_OF_ASC_NODE":359.9621,"ARG_OF_PERICENTER":105.042,"MEAN_ANOMALY":63.28,"EPHEMERIS_TYPE":0,"CLASSIFICATION_TYPE":"U","NORAD_CAT_ID":45738,"ELEMENT_SET_NO":999,"REV_AT_EPOCH":2308,"BSTAR":0.0031694,"MEAN_MOTION_DOT":0.00046191,"MEAN_MOTION_DDOT":0},{"OBJECT_NAME":"STARLINK-1475","OBJECT_ID":"2020-038K","EPOCH":"2020-11-03T14:00:01.000224","MEAN_MOTION":15.22349172,"ECCENTRICITY":0.0005732,"INCLINATION":52.9961,"RA_OF_ASC_NODE":320.9483,"ARG_OF_PERICENTER":276.0083,"MEAN_ANOMALY":108.7688,"EPHEMERIS_TYPE":0,"CLASSIFICATION_TYPE":"U","NORAD_CAT_ID":45739,"ELEMENT_SET_NO":999,"REV_AT_EPOCH":2348,"BSTAR":-0.019103,"MEAN_MOTION_DOT":-0.00422256,"MEAN_MOTION_DDOT":0},{"OBJECT_NAME":"STARLINK-1479","OBJECT_ID":"2020-038L","EPOCH":"2020-11-03T02:00:01.000224","MEAN_MOTION":15.0553879,"ECCENTRICITY":0.0001639,"INCLINATION":52.999,"RA_OF_ASC_NODE":2.2065,"ARG_OF_PERICENTER":95.1508,"MEAN_ANOMALY":187.6118,"EPHEMERIS_TYPE":0,"CLASSIFICATION_TYPE":"U","NORAD_CAT_ID":45740,"ELEMENT_SET_NO":999,"REV_AT_EPOCH":2301,"BSTAR":0.016496,"MEAN_MOTION_DOT":0.00248436,"MEAN_MOTION_DDOT":0},{"OBJECT_NAME":"STARLINK-1480","OBJECT_ID":"2020-038M","EPOCH":"2020-11-03T14:00:01.000224","MEAN_MOTION":15.05571843,"ECCENTRICITY":0.0001113,"INCLINATION":53.0016,"RA_OF_ASC_NODE":359.9464,"ARG_OF_PERICENTER":105.9736,"MEAN_ANOMALY":170.3153,"EPHEMERIS_TYPE":0,"CLASSIFICATION_TYPE":"U","NORAD_CAT_ID":45741,"ELEMENT_SET_NO":999,"REV_AT_EPOCH":2309,"BSTAR":0.0028358,"MEAN_MOTION_DOT":0.00041271,"MEAN_MOTION_DDOT":0},{"OBJECT_NAME":"STARLINK-1481","OBJECT_ID":"2020-038N","EPOCH":"2020-11-03T14:00:01.000224","MEAN_MOTION":15.05566362,"ECCENTRICITY":6.46e-5,"INCLINATION":52.9973,"RA_OF_ASC_NODE":359.9714,"ARG_OF_PERICENTER":83.4435,"MEAN_ANOMALY":246.9262,"EPHEMERIS_TYPE":0,"CLASSIFICATION_TYPE":"U","NORAD_CAT_ID":45742,"ELEMENT_SET_NO":999,"REV_AT_EPOCH":2308,"BSTAR":0.0026394,"MEAN_MOTION_DOT":0.00038372,"MEAN_MOTION_DDOT":0},{"OBJECT_NAME":"STARLINK-1483","OBJECT_ID":"2020-038P","EPOCH":"2020-11-03T02:00:01.000224","MEAN_MOTION":15.05536553,"ECCENTRICITY":0.0001664,"INCLINATION":53.0009,"RA_OF_ASC_NODE":2.2085,"ARG_OF_PERICENTER":93.7392,"MEAN_ANOMALY":225.0237,"EPHEMERIS_TYPE":0,"CLASSIFICATION_TYPE":"U","NORAD_CAT_ID":45743,"ELEMENT_SET_NO":999,"REV_AT_EPOCH":2286,"BSTAR":0.017228,"MEAN_MOTION_DOT":0.00259883,"MEAN_MOTION_DDOT":0},{"OBJECT_NAME":"STARLINK-1500","OBJECT_ID":"2020-038Q","EPOCH":"2020-11-03T14:00:01.000224","MEAN_MOTION":15.05549907,"ECCENTRICITY":0.0001234,"INCLINATION":53.0004,"RA_OF_ASC_NODE":359.9689,"ARG_OF_PERICENTER":68.1314,"MEAN_ANOMALY":316.277,"EPHEMERIS_TYPE":0,"CLASSIFICATION_TYPE":"U","NORAD_CAT_ID":45744,"ELEMENT_SET_NO":999,"REV_AT_EPOCH":2289,"BSTAR":0.0026762,"MEAN_MOTION_DOT":0.00038897,"MEAN_MOTION_DDOT":0},{"OBJECT_NAME":"STARLINK-1503","OBJECT_ID":"2020-038R","EPOCH":"2020-11-03T14:00:01.000224","MEAN_MOTION":15.05558997,"ECCENTRICITY":0.0001314,"INCLINATION":53.0007,"RA_OF_ASC_NODE":359.9635,"ARG_OF_PERICENTER":71.4935,"MEAN_ANOMALY":6.8824,"EPHEMERIS_TYPE":0,"CLASSIFICATION_TYPE":"U","NORAD_CAT_ID":45745,"ELEMENT_SET_NO":999,"REV_AT_EPOCH":2289,"BSTAR":0.0029056,"MEAN_MOTION_DOT":0.00042286,"MEAN_MOTION_DDOT":0},{"OBJECT_NAME":"STARLINK-1504","OBJECT_ID":"2020-038S","EPOCH":"2020-11-03T14:00:01.000224","MEAN_MOTION":15.05570993,"ECCENTRICITY":0.0001177,"INCLINATION":53.001,"RA_OF_ASC_NODE":359.965,"ARG_OF_PERICENTER":67.1405,"MEAN_ANOMALY":299.2011,"EPHEMERIS_TYPE":0,"CLASSIFICATION_TYPE":"U","NORAD_CAT_ID":45746,"ELEMENT_SET_NO":999,"REV_AT_EPOCH":2289,"BSTAR":0.0026296,"MEAN_MOTION_DOT":0.00038233,"MEAN_MOTION_DDOT":0},{"OBJECT_NAME":"STARLINK-1506","OBJECT_ID":"2020-038T","EPOCH":"2020-11-03T14:00:01.000224","MEAN_MOTION":15.05554322,"ECCENTRICITY":0.0001227,"INCLINATION":52.9989,"RA_OF_ASC_NODE":359.9656,"ARG_OF_PERICENTER":82.7401,"MEAN_ANOMALY":265.6454,"EPHEMERIS_TYPE":0,"CLASSIFICATION_TYPE":"U","NORAD_CAT_ID":45747,"ELEMENT_SET_NO":999,"REV_AT_EPOCH":2289,"BSTAR":0.002618,"MEAN_MOTION_DOT":0.00038045,"MEAN_MOTION_DDOT":0},{"OBJECT_NAME":"STARLINK-1507","OBJECT_ID":"2020-038U","EPOCH":"2020-11-03T14:00:01.000224","MEAN_MOTION":15.05575243,"ECCENTRICITY":0.0001092,"INCLINATION":53,"RA_OF_ASC_NODE":359.9666,"ARG_OF_PERICENTER":61.1121,"MEAN_ANOMALY":359.2336,"EPHEMERIS_TYPE":0,"CLASSIFICATION_TYPE":"U","NORAD_CAT_ID":45748,"ELEMENT_SET_NO":999,"REV_AT_EPOCH":2290,"BSTAR":0.0028166,"MEAN_MOTION_DOT":0.00040992,"MEAN_MOTION_DDOT":0},{"OBJECT_NAME":"STARLINK-1516","OBJECT_ID":"2020-038V","EPOCH":"2020-11-02T01:53:58.967808","MEAN_MOTION":15.67525965,"ECCENTRICITY":0.0003804,"INCLINATION":52.9978,"RA_OF_ASC_NODE":321.5496,"ARG_OF_PERICENTER":297.8615,"MEAN_ANOMALY":62.2014,"EPHEMERIS_TYPE":0,"CLASSIFICATION_TYPE":"U","NORAD_CAT_ID":45749,"ELEMENT_SET_NO":999,"REV_AT_EPOCH":2330,"BSTAR":3.0079e-5,"MEAN_MOTION_DOT":2.759e-5,"MEAN_MOTION_DDOT":0},{"OBJECT_NAME":"STARLINK-1391","OBJECT_ID":"2020-038W","EPOCH":"2020-11-03T14:00:01.000224","MEAN_MOTION":15.05572492,"ECCENTRICITY":9.78e-5,"INCLINATION":53.0005,"RA_OF_ASC_NODE":339.9622,"ARG_OF_PERICENTER":70.5592,"MEAN_ANOMALY":115.4708,"EPHEMERIS_TYPE":0,"CLASSIFICATION_TYPE":"U","NORAD_CAT_ID":45750,"ELEMENT_SET_NO":999,"REV_AT_EPOCH":2337,"BSTAR":0.0023294,"MEAN_MOTION_DOT":0.00033816,"MEAN_MOTION_DDOT":0},{"OBJECT_NAME":"STARLINK-1464","OBJECT_ID":"2020-038X","EPOCH":"2020-11-03T14:00:01.000224","MEAN_MOTION":15.05572174,"ECCENTRICITY":9.81e-5,"INCLINATION":52.9988,"RA_OF_ASC_NODE":339.9588,"ARG_OF_PERICENTER":77.9042,"MEAN_ANOMALY":126.1742,"EPHEMERIS_TYPE":0,"CLASSIFICATION_TYPE":"U","NORAD_CAT_ID":45751,"ELEMENT_SET_NO":999,"REV_AT_EPOCH":2337,"BSTAR":0.0022581,"MEAN_MOTION_DOT":0.00032767,"MEAN_MOTION_DDOT":0},{"OBJECT_NAME":"STARLINK-1469","OBJECT_ID":"2020-038Y","EPOCH":"2020-11-03T14:00:01.000224","MEAN_MOTION":15.66226697,"ECCENTRICITY":0.0001165,"INCLINATION":52.9984,"RA_OF_ASC_NODE":302.5739,"ARG_OF_PERICENTER":78.8542,"MEAN_ANOMALY":5.8399,"EPHEMERIS_TYPE":0,"CLASSIFICATION_TYPE":"U","NORAD_CAT_ID":45752,"ELEMENT_SET_NO":999,"REV_AT_EPOCH":2388,"BSTAR":1.1304e-5,"MEAN_MOTION_DOT":6.27e-6,"MEAN_MOTION_DDOT":0},{"OBJECT_NAME":"STARLINK-1476","OBJECT_ID":"2020-038Z","EPOCH":"2020-11-03T14:00:01.000224","MEAN_MOTION":15.05567805,"ECCENTRICITY":0.0001053,"INCLINATION":52.9992,"RA_OF_ASC_NODE":339.9583,"ARG_OF_PERICENTER":74.3298,"MEAN_ANOMALY":75.7076,"EPHEMERIS_TYPE":0,"CLASSIFICATION_TYPE":"U","NORAD_CAT_ID":45753,"ELEMENT_SET_NO":999,"REV_AT_EPOCH":2336,"BSTAR":0.002425,"MEAN_MOTION_DOT":0.00035218,"MEAN_MOTION_DDOT":0},{"OBJECT_NAME":"STARLINK-1477","OBJECT_ID":"2020-038AA","EPOCH":"2020-11-03T14:00:01.000224","MEAN_MOTION":15.05552799,"ECCENTRICITY":0.0001404,"INCLINATION":53.0011,"RA_OF_ASC_NODE":339.9599,"ARG_OF_PERICENTER":75.1769,"MEAN_ANOMALY":56.9229,"EPHEMERIS_TYPE":0,"CLASSIFICATION_TYPE":"U","NORAD_CAT_ID":45754,"ELEMENT_SET_NO":999,"REV_AT_EPOCH":2321,"BSTAR":0.0024475,"MEAN_MOTION_DOT":0.00035535,"MEAN_MOTION_DDOT":0},{"OBJECT_NAME":"STARLINK-1478","OBJECT_ID":"2020-038AB","EPOCH":"2020-11-02T22:00:00.999936","MEAN_MOTION":15.05582382,"ECCENTRICITY":0.0001389,"INCLINATION":52.9991,"RA_OF_ASC_NODE":342.9546,"ARG_OF_PERICENTER":80.1917,"MEAN_ANOMALY":288.4185,"EPHEMERIS_TYPE":0,"CLASSIFICATION_TYPE":"U","NORAD_CAT_ID":45755,"ELEMENT_SET_NO":999,"REV_AT_EPOCH":206,"BSTAR":-9.8277e-6,"MEAN_MOTION_DOT":-4.23e-6,"MEAN_MOTION_DDOT":0},{"OBJECT_NAME":"STARLINK-1484","OBJECT_ID":"2020-038AC","EPOCH":"2020-11-03T14:00:01.000224","MEAN_MOTION":15.05577818,"ECCENTRICITY":0.0001005,"INCLINATION":52.9995,"RA_OF_ASC_NODE":339.9593,"ARG_OF_PERICENTER":56.0531,"MEAN_ANOMALY":3.9729,"EPHEMERIS_TYPE":0,"CLASSIFICATION_TYPE":"U","NORAD_CAT_ID":45756,"ELEMENT_SET_NO":999,"REV_AT_EPOCH":2336,"BSTAR":0.0023142,"MEAN_MOTION_DOT":0.00033597,"MEAN_MOTION_DDOT":0},{"OBJECT_NAME":"STARLINK-1486","OBJECT_ID":"2020-038AD","EPOCH":"2020-11-03T14:00:01.000224","MEAN_MOTION":15.05581808,"ECCENTRICITY":0.0001416,"INCLINATION":52.9916,"RA_OF_ASC_NODE":340.0003,"ARG_OF_PERICENTER":63.4254,"MEAN_ANOMALY":248.6502,"EPHEMERIS_TYPE":0,"CLASSIFICATION_TYPE":"U","NORAD_CAT_ID":45757,"ELEMENT_SET_NO":999,"REV_AT_EPOCH":2336,"BSTAR":0.0020109,"MEAN_MOTION_DOT":0.00029142,"MEAN_MOTION_DDOT":0},{"OBJECT_NAME":"STARLINK-1487","OBJECT_ID":"2020-038AE","EPOCH":"2020-11-03T14:00:01.000224","MEAN_MOTION":15.05575575,"ECCENTRICITY":0.0001155,"INCLINATION":52.9938,"RA_OF_ASC_NODE":339.9857,"ARG_OF_PERICENTER":65.3742,"MEAN_ANOMALY":282.6817,"EPHEMERIS_TYPE":0,"CLASSIFICATION_TYPE":"U","NORAD_CAT_ID":45758,"ELEMENT_SET_NO":999,"REV_AT_EPOCH":2336,"BSTAR":0.0020671,"MEAN_MOTION_DOT":0.00029963,"MEAN_MOTION_DDOT":0}]
